satname,norad_id,inclination_deg,eccentricity,mean_motion_rev_per_day,perigee_km,apogee_km,l1,l2
STARLINK-1540,46051,53.1596,0.0001424,15.3019029,474.2681404191835,476.21998334560885,1 46051U 20055AA  26123.67896721  .00005380  00000+0  19369-3 0  9994,2 46051  53.1596 218.4256 0001424  52.1191 307.9938 15.30190290317500
STARLINK-1541,46052,53.1594,0.0001374,15.70014445,357.9300233541844,359.7813489443379,1 46052U 20055AB  26123.91668980  .01011230  00000+0  74264-2 0  9992,2 46052  53.1594 213.0732 0001374  79.2138 208.4335 15.70014445  5853
STARLINK-1543,46053,53.1602,0.0001452,15.31711791,469.710395257478,471.6992989298742,1 46053U 20055AC  26123.59732325  .00014037  00000+0  46306-3 0  9996,2 46053  53.1602 218.7375 0001452  69.3717 290.7440 15.31711791317480
STARLINK-1548,46054,53.159,0.000141,15.31724239,469.70205951231037,471.6334224492657,1 46054U 20055AD  26123.61128933  .00018389  00000+0  60241-3 0  9992,2 46054  53.1590 218.7458 0001410  94.2505 265.8658 15.31724239317480
STARLINK-1554,46055,53.161,0.0001571,15.31691002,469.69085513694245,471.84278071653443,1 46055U 20055AE  26123.52739693 -.00003580  00000+0 -10366-3 0  9996,2 46055  53.1610 219.0818 0001571  88.9790 271.1392 15.31691002317477
STARLINK-1564,46058,53.1581,0.0001179,15.30193513,474.42642600786166,476.0424509930599,1 46058U 20055AH  26123.67799347  .00000868  00000+0  41432-4 0  9990,2 46058  53.1581 218.9529 0001179  78.4595 281.6538 15.30193513317487
STARLINK-1570,46059,53.1587,0.0001271,15.31690342,469.8982894470437,471.63928129768556,1 46059U 20055AJ  26123.55533863 -.00002875  00000+0 -80923-4 0  9997,2 46059  53.1587 218.8349 0001271  81.5502 278.5644 15.31690342317430
STARLINK-1572,46060,53.1603,0.0001323,15.30185633,474.35126287315416,476.1646711814292,1 46060U 20055AK  26123.52836288 -.00003051  00000+0 -90973-4 0  9996,2 46060  53.1603 219.3945 0001323  94.4403 265.6749 15.30185633317434
STARLINK-1573,46061,53.1579,0.0001295,15.31681362,469.90861793135355,471.6824914630197,1 46061U 20055AL  26123.66670139  .00053630  00000+0  17286-2 0  9993,2 46061  53.1579 218.2854 0001295  79.2223 252.3788 15.31681362  5872
STARLINK-1577,46063,53.1594,0.0001339,15.31688867,469.8561132469349,471.69025139376026,1 46063U 20055AN  26123.63456836 -.00000962  00000+0 -19242-4 0  9996,2 46063  53.1594 218.4259 0001339  90.8537 269.2618 15.31688867317487
STARLINK-1583,46064,53.1578,0.0001305,15.30186635,474.36060753795664,476.14934284348146,1 46064U 20055AP  26123.55781579 -.00003388  00000+0 -10235-3 0  9990,2 46064  53.1578 219.0076 0001305  86.9242 273.1908 15.30186635317465
STARLINK-1536,46070,53.1579,0.0001243,15.3172054,469.8274594388131,471.5300750385486,1 46070U 20055AV  26123.83335647 -.00016067  00000+0 -50675-3 0  9999,2 46070  53.1579 205.3888 0001243  84.7348 207.4189 15.31720540  5832
STARLINK-1542,46073,53.1271,4.36e-05,15.24565331,491.79142930684156,492.39051318593374,1 46073U 20055AY  26123.83335647  .00059618  00000+0  23834-2 0  9995,2 46073  53.1271 208.1243 0000436 131.7373 150.8465 15.24565331  5727
STARLINK-1549,46074,53.0532,0.0002717,15.26976515,482.99206695205976,486.72141775165437,1 46074U 20055AZ  26123.41836906  .00051421  00000+0  19157-2 0  9991,2 46074  53.0532 206.9429 0002717   5.2892 354.8134 15.26976515317608
STARLINK-1551,46075,53.1584,0.0001421,15.30193929,474.2593324860427,476.20706029585654,1 46075U 20055BA  26123.40766970 -.00006702  00000+0 -21439-3 0  9995,2 46075  53.1584 206.9006 0001421  78.1961 281.9200 15.30193929317615
STARLINK-1552,46076,53.1609,0.0001417,15.30185845,474.286208046542,476.22846000080335,1 46076U 20055BB  26123.42450770 -.00004438  00000+0 -13786-3 0  9996,2 46076  53.1609 206.7386 0001417  87.4449 272.6714 15.30185845317606
STARLINK-1559,46077,53.0234,0.0002547,15.35184695,458.6301865608557,462.1137230224267,1 46077U 20055BC  26123.86672557  .00049230  00000+0  14225-2 0  9999,2 46077  53.0234 175.9832 0002547 349.1835  10.9111 15.35184695318045
STARLINK-1566,46079,53.1612,0.0001092,15.31699608,469.99326626201673,471.48906125298254,1 46079U 20055BE  26123.50102722  .00001241  00000+0  51732-4 0  9990,2 46079  53.1612 206.3065 0001092  80.7414 279.3711 15.31699608317632
STARLINK-1568,46080,53.0581,0.0004649,15.51153145,410.20069979345317,416.515431905681,1 46080U 20055BF  26123.28042733  .00050628  00000+0  85459-3 0  9997,2 46080  53.0581 131.5704 0004649 348.1377  11.9521 15.51153145318652
STARLINK-1578,46082,53.1793,0.0001157,15.31697822,469.95407191847517,471.538903557539,1 46082U 20055BH  26123.91668980 -.00017965  00000+0 -56859-3 0  9998,2 46082  53.1793 204.8920 0001157  64.2550  44.9474 15.31697822  5855
STARLINK-1579,46083,53.1619,0.0001287,15.31693026,469.8793312907728,471.64223758048774,1 46083U 20055BJ  26123.49170397 -.00000914  00000+0 -17679-4 0  9996,2 46083  53.1619 206.4014 0001287  78.4395 281.6751 15.31693026317624
STARLINK-1593,46119,53.0267,0.0010618,16.1992495,212.75000576680577,226.7612905944825,1 46119U 20057C   26124.09063464  .02406305  11801-4  12054-2 0  9991,2 46119  53.0267 348.6772 0010618 251.0130 108.9757 16.19924950316789
STARLINK-1622,46128,53.0192,0.0001959,15.7501252,343.27857122364003,345.91253783850516,1 46128U 20057M   26123.83335647  .00030267  00000+0  20285-3 0  9995,2 46128  53.0192 311.6094 0001959 319.7971 334.7456 15.75012520  5968
STARLINK-1623,46129,53.0461,7.54e-05,15.68153007,363.6775833511956,364.6943256527338,1 46129U 20057N   26123.88596775  .00079568  00000+0  69853-3 0  9993,2 46129  53.0461 347.3728 0000754 164.9370 195.1668 15.68153007315532
STARLINK-1624,46130,53.0336,0.0006734,15.91171842,294.5061420714428,303.498913587523,1 46130U 20057P   26123.91668980  .00441160  85221-4  13628-2 0  9999,2 46130  53.0336 316.0918 0006734 236.1040 246.1402 15.91171842  6059
STARLINK-1596,46141,53.0389,0.0002186,15.53784541,404.2051775214777,407.1710658646816,1 46141U 20057AA  26123.70979586  .00101061  00000+0  15354-2 0  9993,2 46141  53.0389 327.0096 0002186 233.8219 126.2588 15.53784541315800
STARLINK-1597,46142,53.046,0.0003344,15.67748462,363.0907524663826,367.60079374503584,1 46142U 20057AB  26123.15497174  .00104178  00000+0  92528-3 0  9992,2 46142  53.0460  30.6491 0003344  53.3624 306.7699 15.67748462314858
STARLINK-1606,46144,53.0408,0.0003891,15.77528417,334.83285536235144,340.05892196630975,1 46144U 20057AD  26123.83335647  .00031803  00000+0  19066-3 0  9995,2 46144  53.0408 343.5244 0003891 177.8487  32.2010 15.77528417  5807
